{
  "type": "FeatureCollection",
  "features": [
    {
      "type": "Feature",
      "properties": {
        "norad_id": 66624,
        "name": "STARLINK-35927",
        "group": "last-30-days",
        "lat": -41.65315550701119,
        "lon": 89.93965577674831,
        "alt_km": 332.3716795853579,
        "timestamp": "2025-12-04T09:47:36.303778+00:00",
        "meta_object_name": "STARLINK-35927",
        "meta_object_id": "2025-271H",
        "meta_epoch": "2025-12-03T22:00:03.000096",
        "meta_mean_motion": 15.82717737,
        "meta_eccentricity": 5.493e-05,
        "meta_inclination": 53.157,
        "meta_ra_of_asc_node": 230.5735,
        "meta_arg_of_pericenter": 94.1991,
        "meta_mean_anomaly": 222.123,
        "meta_ephemeris_type": 0,
        "meta_classification_type": "U",
        "meta_norad_cat_id": 66624,
        "meta_element_set_no": 999,
        "meta_rev_at_epoch": 282,
        "meta_bstar": -0.0082623757,
        "meta_mean_motion_dot": -0.01560441,
        "meta_mean_motion_ddot": 0,
        "tle_line1": "1 66624U 25271H   25337.91670139 -.01560441  00000+0 -82624-2 0  9993",
        "tle_line2": "2 66624  53.1570 230.5735 0000549  94.1991 222.1230 15.82717737  2825"
      },
      "geometry": {
        "type": "Point",
        "coordinates": [
          89.93965577674831,
          -41.65315550701119
        ]
      }
    },
    {
      "type": "Feature",
      "properties": {
        "norad_id": 66625,
        "name": "STARLINK-35929",
        "group": "last-30-days",
        "lat": -44.21460754699107,
        "lon": 94.94505443727758,
        "alt_km": 332.66750247966775,
        "timestamp": "2025-12-04T09:47:36.303790+00:00",
        "meta_object_name": "STARLINK-35929",
        "meta_object_id": "2025-271J",
        "meta_epoch": "2025-12-03T22:00:03.000096",
        "meta_mean_motion": 15.82694931,
        "meta_eccentricity": 5.828e-05,
        "meta_inclination": 53.1569,
        "meta_ra_of_asc_node": 230.5641,
        "meta_arg_of_pericenter": 87.6996,
        "meta_mean_anomaly": 233.1642,
        "meta_ephemeris_type": 0,
        "meta_classification_type": "U",
        "meta_norad_cat_id": 66625,
        "meta_element_set_no": 999,
        "meta_rev_at_epoch": 282,
        "meta_bstar": -0.0083702872,
        "meta_mean_motion_dot": -0.01576783,
        "meta_mean_motion_ddot": 0,
        "tle_line1": "1 66625U 25271J   25337.91670139 -.01576783  00000+0 -83703-2 0  9999",
        "tle_line2": "2 66625  53.1569 230.5641 0000582  87.6996 233.1642 15.82694931  2828"
      },
      "geometry": {
        "type": "Point",
        "coordinates": [
          94.94505443727758,
          -44.21460754699107
        ]
      }
    },
    {
      "type": "Feature",
      "properties": {
        "norad_id": 66626,
        "name": "STARLINK-35902",
        "group": "last-30-days",
        "lat": -45.49001574508266,
        "lon": 97.80026201846357,
        "alt_km": 332.8028938128464,
        "timestamp": "2025-12-04T09:47:36.303800+00:00",
        "meta_object_name": "STARLINK-35902",
        "meta_object_id": "2025-271K",
        "meta_epoch": "2025-12-03T22:00:03.000096",
        "meta_mean_motion": 15.82669849,
        "meta_eccentricity": 5.653e-05,
        "meta_inclination": 53.1568,
        "meta_ra_of_asc_node": 230.559,
        "meta_arg_of_pericenter": 92.2188,
        "meta_mean_anomaly": 231.1005,
        "meta_ephemeris_type": 0,
        "meta_classification_type": "U",
        "meta_norad_cat_id": 66626,
        "meta_element_set_no": 999,
        "meta_rev_at_epoch": 282,
        "meta_bstar": -0.0084486035,
        "meta_mean_motion_dot": -0.01587993,
        "meta_mean_motion_ddot": 0,
        "tle_line1": "1 66626U 25271K   25337.91670139 -.01587993  00000+0 -84486-2 0  9994",
        "tle_line2": "2 66626  53.1568 230.5590 0000565  92.2188 231.1005 15.82669849  2828"
      },
      "geometry": {
        "type": "Point",
        "coordinates": [
          97.80026201846357,
          -45.49001574508266
        ]
      }
    },
    {
      "type": "Feature",
      "properties": {
        "norad_id": 66627,
        "name": "STARLINK-35904",
        "group": "last-30-days",
        "lat": -46.716642092507406,
        "lon": 100.85183894281955,
        "alt_km": 333.0322913835853,
        "timestamp": "2025-12-04T09:47:36.303810+00:00",
        "meta_object_name": "STARLINK-35904",
        "meta_object_id": "2025-271L",
        "meta_epoch": "2025-12-03T22:00:03.000096",
        "meta_mean_motion": 15.82638382,
        "meta_eccentricity": 5.955e-05,
        "meta_inclination": 53.1566,
        "meta_ra_of_asc_node": 230.5534,
        "meta_arg_of_pericenter": 83.1821,
        "meta_mean_anomaly": 242.6597,
        "meta_ephemeris_type": 0,
        "meta_classification_type": "U",
        "meta_norad_cat_id": 66627,
        "meta_element_set_no": 999,
        "meta_rev_at_epoch": 266,
        "meta_bstar": -0.0085304494,
        "meta_mean_motion_dot": -0.01599337,
        "meta_mean_motion_ddot": 0,
        "tle_line1": "1 66627U 25271L   25337.91670139 -.01599337  00000+0 -85304-2 0  9990",
        "tle_line2": "2 66627  53.1566 230.5534 0000595  83.1821 242.6597 15.82638382  2664"
      },
      "geometry": {
        "type": "Point",
        "coordinates": [
          100.85183894281955,
          -46.716642092507406
        ]
      }
    },
    {
      "type": "Feature",
      "properties": {
        "norad_id": 66628,
        "name": "STARLINK-35862",
        "group": "last-30-days",
        "lat": -47.75557717793796,
        "lon": 103.73699038029481,
        "alt_km": 333.05885805021626,
        "timestamp": "2025-12-04T09:47:36.303820+00:00",
        "meta_object_name": "STARLINK-35862",
        "meta_object_id": "2025-271M",
        "meta_epoch": "2025-12-03T22:00:03.000096",
        "meta_mean_motion": 15.82653422,
        "meta_eccentricity": 5.497e-05,
        "meta_inclination": 53.1568,
        "meta_ra_of_asc_node": 230.549,
        "meta_arg_of_pericenter": 92.2636,
        "meta_mean_anomaly": 235.8014,
        "meta_ephemeris_type": 0,
        "meta_classification_type": "U",
        "meta_norad_cat_id": 66628,
        "meta_element_set_no": 999,
        "meta_rev_at_epoch": 282,
        "meta_bstar": -0.0086771483,
        "meta_mean_motion_dot": -0.01624227,
        "meta_mean_motion_ddot": 0,
        "tle_line1": "1 66628U 25271M   25337.91670139 -.01624227  00000+0 -86771-2 0  9997",
        "tle_line2": "2 66628  53.1568 230.5490 0000549  92.2636 235.8014 15.82653422  2820"
      },
      "geometry": {
        "type": "Point",
        "coordinates": [
          103.73699038029481,
          -47.75557717793796
        ]
      }
    },
    {
      "type": "Feature",
      "properties": {
        "norad_id": 66629,
        "name": "STARLINK-35956",
        "group": "last-30-days",
        "lat": -48.75789099573152,
        "lon": 106.86490243282549,
        "alt_km": 333.24922688316474,
        "timestamp": "2025-12-04T09:47:36.303830+00:00",
        "meta_object_name": "STARLINK-35956",
        "meta_object_id": "2025-271N",
        "meta_epoch": "2025-12-03T22:00:03.000096",
        "meta_mean_motion": 15.82616582,
        "meta_eccentricity": 6.475e-05,
        "meta_inclination": 53.1567,
        "meta_ra_of_asc_node": 230.5441,
        "meta_arg_of_pericenter": 96.8705,
        "meta_mean_anomaly": 233.5782,
        "meta_ephemeris_type": 0,
        "meta_classification_type": "U",
        "meta_norad_cat_id": 66629,
        "meta_element_set_no": 999,
        "meta_rev_at_epoch": 282,
        "meta_bstar": -0.0087001305,
        "meta_mean_motion_dot": -0.01625563,
        "meta_mean_motion_ddot": 0,
        "tle_line1": "1 66629U 25271N   25337.91670139 -.01625563  00000+0 -87001-2 0  9999",
        "tle_line2": "2 66629  53.1567 230.5441 0000647  96.8705 233.5782 15.82616582  2825"
      },
      "geometry": {
        "type": "Point",
        "coordinates": [
          106.86490243282549,
          -48.75789099573152
        ]
      }
    },
    {
      "type": "Feature",
      "properties": {
        "norad_id": 66630,
        "name": "STARLINK-35949",
        "group": "last-30-days",
        "lat": -49.595369029399336,
        "lon": 109.8243985245734,
        "alt_km": 333.23157692625773,
        "timestamp": "2025-12-04T09:47:36.303843+00:00",
        "meta_object_name": "STARLINK-35949",
        "meta_object_id": "2025-271P",
        "meta_epoch": "2025-12-03T22:00:03.000096",
        "meta_mean_motion": 15.82613148,
        "meta_eccentricity": 5.033e-05,
        "meta_inclination": 53.1565,
        "meta_ra_of_asc_node": 230.5393,
        "meta_arg_of_pericenter": 91.0533,
        "meta_mean_anomaly": 241.522,
        "meta_ephemeris_type": 0,
        "meta_classification_type": "U",
        "meta_norad_cat_id": 66630,
        "meta_element_set_no": 999,
        "meta_rev_at_epoch": 282,
        "meta_bstar": -0.008723624,
        "meta_mean_motion_dot": -0.01629035,
        "meta_mean_motion_ddot": 0,
        "tle_line1": "1 66630U 25271P   25337.91670139 -.01629035  00000+0 -87236-2 0  9999",
        "tle_line2": "2 66630  53.1565 230.5393 0000503  91.0533 241.5220 15.82613148  2829"
      },
      "geometry": {
        "type": "Point",
        "coordinates": [
          109.8243985245734,
          -49.595369029399336
        ]
      }
    }
  ]
}